{
  "norad_id": 50466,
  "name": "XW-3 (CAS-9)",
  "history": [
    {
      "epoch": "2026-03-28T22:37:25.122432Z",
      "apogee_km": 756.9874759627901,
      "perigee_km": 751.5982119726868,
      "latitude_deg": 7.962487196176171e-05,
      "longitude_deg": 15.075755338235183,
      "height_km": 754.5514793533218,
      "semi_major_axis_km": 7132.429843967738,
      "eccentricity": 0.0003778,
      "inclination_deg": 98.4945,
      "raan_deg": 180.7863,
      "arg_perigee_deg": 357.2195,
      "mean_anomaly_deg": 2.8973,
      "mean_motion_rev_day": 14.41273824
    },
    {
      "epoch": "2026-03-29T05:17:17.727648Z",
      "apogee_km": 756.9633360679727,
      "perigee_km": 751.6168687120216,
      "latitude_deg": -2.466723176279676e-05,
      "longitude_deg": -84.89112339113234,
      "height_km": 754.5731684611253,
      "semi_major_axis_km": 7132.427102389997,
      "eccentricity": 0.0003748,
      "inclination_deg": 98.4945,
      "raan_deg": 181.0623,
      "arg_perigee_deg": 356.1334,
      "mean_anomaly_deg": 3.9825,
      "mean_motion_rev_day": 14.41274655
    },
    {
      "epoch": "2026-03-30T04:36:51.862752Z",
      "apogee_km": 756.9246064483359,
      "perigee_km": 751.642335847404,
      "latitude_deg": 8.28566259505224e-06,
      "longitude_deg": -74.77512815274825,
      "height_km": 754.6137861264714,
      "semi_major_axis_km": 7132.42047114787,
      "eccentricity": 0.0003703,
      "inclination_deg": 98.4946,
      "raan_deg": 182.0285,
      "arg_perigee_deg": 352.7825,
      "mean_anomaly_deg": 7.331,
      "mean_motion_rev_day": 14.41276665
    },
    {
      "epoch": "2026-03-30T06:16:50.007360Z",
      "apogee_km": 756.9226170731017,
      "perigee_km": 751.6426294743851,
      "latitude_deg": 8.038030085583652e-06,
      "longitude_deg": -99.76692363737061,
      "height_km": 754.6148967291645,
      "semi_major_axis_km": 7132.419623273743,
      "eccentricity": 0.00037014,
      "inclination_deg": 98.4946,
      "raan_deg": 182.0974,
      "arg_perigee_deg": 352.6434,
      "mean_anomaly_deg": 7.47,
      "mean_motion_rev_day": 14.41276922
    },
    {
      "epoch": "2026-03-30T14:36:40.746816Z",
      "apogee_km": 756.9143700576878,
      "perigee_km": 751.6476499507417,
      "latitude_deg": -5.064437418908518e-05,
      "longitude_deg": 135.27473888608142,
      "height_km": 754.6264609542906,
      "semi_major_axis_km": 7132.418010004215,
      "eccentricity": 0.00036921,
      "inclination_deg": 98.4947,
      "raan_deg": 182.4426,
      "arg_perigee_deg": 351.6109,
      "mean_anomaly_deg": 8.5017,
      "mean_motion_rev_day": 14.41277411
    },
    {
      "epoch": "2026-03-30T22:56:31.505280Z",
      "apogee_km": 756.8819810064897,
      "perigee_km": 751.6773139304987,
      "latitude_deg": 3.3800125464734645e-05,
      "longitude_deg": 10.316300729943555,
      "height_km": 754.6632812557201,
      "semi_major_axis_km": 7132.416647468494,
      "eccentricity": 0.00036486,
      "inclination_deg": 98.4947,
      "raan_deg": 182.7878,
      "arg_perigee_deg": 350.5586,
      "mean_anomaly_deg": 9.5534,
      "mean_motion_rev_day": 14.41277824
    }
  ]
}